{
  "type": "FeatureCollection",
  "features": [
    {
      "type": "Feature",
      "properties": {
        "norad_id": 34350,
        "name": "IRIDIUM 33 DEB",
        "group": "iridium-33-debris",
        "lat": -69.22617323534863,
        "lon": -11.737290003427908,
        "alt_km": 764.5158163683591,
        "timestamp": "2025-12-23T18:59:32.349778+00:00",
        "meta_object_name": "IRIDIUM 33 DEB",
        "meta_object_id": "1997-051ES",
        "meta_epoch": "2025-12-23T01:18:23.719680",
        "meta_mean_motion": 14.45409977,
        "meta_eccentricity": 0.00234549,
        "meta_inclination": 86.3272,
        "meta_ra_of_asc_node": 358.331,
        "meta_arg_of_pericenter": 103.6059,
        "meta_mean_anomaly": 314.9191,
        "meta_ephemeris_type": 0,
        "meta_classification_type": "U",
        "meta_norad_cat_id": 34350,
        "meta_element_set_no": 999,
        "meta_rev_at_epoch": 88442,
        "meta_bstar": 0.00031237474,
        "meta_mean_motion_dot": 1.122e-05,
        "meta_mean_motion_ddot": 0,
        "tle_line1": "1 34350U 97051ES  25357.05444120  .00001122  00000+0  31237-3 0  9993",
        "tle_line2": "2 34350  86.3272 358.3310 0023454 103.6059 314.9191 14.45409977884424"
      },
      "geometry": {
        "type": "Point",
        "coordinates": [
          -11.737290003427908,
          -69.22617323534863
        ]
      }
    },
    {
      "type": "Feature",
      "properties": {
        "norad_id": 34366,
        "name": "IRIDIUM 33 DEB",
        "group": "iridium-33-debris",
        "lat": -64.15225144552784,
        "lon": -127.96108597303096,
        "alt_km": 731.8482359883592,
        "timestamp": "2025-12-23T18:59:32.349788+00:00",
        "meta_object_name": "IRIDIUM 33 DEB",
        "meta_object_id": "1997-051FJ",
        "meta_epoch": "2025-12-22T10:47:10.372704",
        "meta_mean_motion": 14.54128755,
        "meta_eccentricity": 0.00230356,
        "meta_inclination": 86.3686,
        "meta_ra_of_asc_node": 45.09,
        "meta_arg_of_pericenter": 109.4758,
        "meta_mean_anomaly": 314.4093,
        "meta_ephemeris_type": 0,
        "meta_classification_type": "U",
        "meta_norad_cat_id": 34366,
        "meta_element_set_no": 999,
        "meta_rev_at_epoch": 88323,
        "meta_bstar": 0.000894432,
        "meta_mean_motion_dot": 3.813e-05,
        "meta_mean_motion_ddot": 0,
        "tle_line1": "1 34366U 97051FJ  25356.44942561  .00003813  00000+0  89443-3 0  9995",
        "tle_line2": "2 34366  86.3686  45.0900 0023035 109.4758 314.4093 14.54128755883236"
      },
      "geometry": {
        "type": "Point",
        "coordinates": [
          -127.96108597303096,
          -64.15225144552784
        ]
      }
    },
    {
      "type": "Feature",
      "properties": {
        "norad_id": 34375,
        "name": "IRIDIUM 33 DEB",
        "group": "iridium-33-debris",
        "lat": 13.535486463171393,
        "lon": -2.614526792447973,
        "alt_km": 812.140417558775,
        "timestamp": "2025-12-23T18:59:32.349798+00:00",
        "meta_object_name": "IRIDIUM 33 DEB",
        "meta_object_id": "1997-051FT",
        "meta_epoch": "2025-12-22T12:02:26.342592",
        "meta_mean_motion": 14.18009533,
        "meta_eccentricity": 0.01037059,
        "meta_inclination": 86.4323,
        "meta_ra_of_asc_node": 178.7659,
        "meta_arg_of_pericenter": 96.2041,
        "meta_mean_anomaly": 329.6113,
        "meta_ephemeris_type": 0,
        "meta_classification_type": "U",
        "meta_norad_cat_id": 34375,
        "meta_element_set_no": 999,
        "meta_rev_at_epoch": 86850,
        "meta_bstar": 0.00038502204,
        "meta_mean_motion_dot": 8.51e-06,
        "meta_mean_motion_ddot": 0,
        "tle_line1": "1 34375U 97051FT  25356.50169378  .00000851  00000+0  38502-3 0  9998",
        "tle_line2": "2 34375  86.4323 178.7659 0103705  96.2041 329.6113 14.18009533868507"
      },
      "geometry": {
        "type": "Point",
        "coordinates": [
          -2.614526792447973,
          13.535486463171393
        ]
      }
    },
    {
      "type": "Feature",
      "properties": {
        "norad_id": 34376,
        "name": "IRIDIUM 33 DEB",
        "group": "iridium-33-debris",
        "lat": 28.758703846021053,
        "lon": 179.53395893808866,
        "alt_km": 664.5425506230249,
        "timestamp": "2025-12-23T18:59:32.349807+00:00",
        "meta_object_name": "IRIDIUM 33 DEB",
        "meta_object_id": "1997-051FU",
        "meta_epoch": "2025-12-22T17:40:39.041472",
        "meta_mean_motion": 14.62694295,
        "meta_eccentricity": 0.00282683,
        "meta_inclination": 86.2978,
        "meta_ra_of_asc_node": 2.0446,
        "meta_arg_of_pericenter": 133.8099,
        "meta_mean_anomaly": 226.5457,
        "meta_ephemeris_type": 0,
        "meta_classification_type": "U",
        "meta_norad_cat_id": 34376,
        "meta_element_set_no": 999,
        "meta_rev_at_epoch": 88153,
        "meta_bstar": 0.0014444618,
        "meta_mean_motion_dot": 7.418e-05,
        "meta_mean_motion_ddot": 0,
        "tle_line1": "1 34376U 97051FU  25356.73656298  .00007418  00000+0  14445-2 0  9991",
        "tle_line2": "2 34376  86.2978   2.0446 0028268 133.8099 226.5457 14.62694295881534"
      },
      "geometry": {
        "type": "Point",
        "coordinates": [
          179.53395893808866,
          28.758703846021053
        ]
      }
    },
    {
      "type": "Feature",
      "properties": {
        "norad_id": 34486,
        "name": "IRIDIUM 33 DEB",
        "group": "iridium-33-debris",
        "lat": -73.9463993170148,
        "lon": -160.41404309305963,
        "alt_km": 595.4696625544502,
        "timestamp": "2025-12-23T18:59:32.349816+00:00",
        "meta_object_name": "IRIDIUM 33 DEB",
        "meta_object_id": "1997-051GB",
        "meta_epoch": "2025-12-22T11:56:52.779840",
        "meta_mean_motion": 14.9620636,
        "meta_eccentricity": 0.00139165,
        "meta_inclination": 86.3926,
        "meta_ra_of_asc_node": 7.5191,
        "meta_arg_of_pericenter": 84.4454,
        "meta_mean_anomaly": 47.0404,
        "meta_ephemeris_type": 0,
        "meta_classification_type": "U",
        "meta_norad_cat_id": 34486,
        "meta_element_set_no": 999,
        "meta_rev_at_epoch": 89132,
        "meta_bstar": 0.002364133,
        "meta_mean_motion_dot": 0.00026794,
        "meta_mean_motion_ddot": 0,
        "tle_line1": "1 34486U 97051GB  25356.49783310  .00026794  00000+0  23641-2 0  9998",
        "tle_line2": "2 34486  86.3926   7.5191 0013916  84.4454  47.0404 14.96206360891322"
      },
      "geometry": {
        "type": "Point",
        "coordinates": [
          -160.41404309305963,
          -73.9463993170148
        ]
      }
    },
    {
      "type": "Feature",
      "properties": {
        "norad_id": 34487,
        "name": "IRIDIUM 33 DEB",
        "group": "iridium-33-debris",
        "lat": -28.892461116638504,
        "lon": 5.596083595646107,
        "alt_km": 766.5487607627892,
        "timestamp": "2025-12-23T18:59:32.349826+00:00",
        "meta_object_name": "IRIDIUM 33 DEB",
        "meta_object_id": "1997-051GC",
        "meta_epoch": "2025-12-23T01:04:13.236960",
        "meta_mean_motion": 14.43228898,
        "meta_eccentricity": 0.00332442,
        "meta_inclination": 86.3429,
        "meta_ra_of_asc_node": 7.9402,
        "meta_arg_of_pericenter": 96.3176,
        "meta_mean_anomaly": 317.7996,
        "meta_ephemeris_type": 0,
        "meta_classification_type": "U",
        "meta_norad_cat_id": 34487,
        "meta_element_set_no": 999,
        "meta_rev_at_epoch": 88397,
        "meta_bstar": 0.00017561183,
        "meta_mean_motion_dot": 6.15e-06,
        "meta_mean_motion_ddot": 0,
        "tle_line1": "1 34487U 97051GC  25357.04459765  .00000615  00000+0  17561-3 0  9994",
        "tle_line2": "2 34487  86.3429   7.9402 0033244  96.3176 317.7996 14.43228898883976"
      },
      "geometry": {
        "type": "Point",
        "coordinates": [
          5.596083595646107,
          -28.892461116638504
        ]
      }
    },
    {
      "type": "Feature",
      "properties": {
        "norad_id": 34488,
        "name": "IRIDIUM 33 DEB",
        "group": "iridium-33-debris",
        "lat": 2.828062109587869,
        "lon": 120.14813750533436,
        "alt_km": 478.09107735036287,
        "timestamp": "2025-12-23T18:59:32.349835+00:00",
        "meta_object_name": "IRIDIUM 33 DEB",
        "meta_object_id": "1997-051GD",
        "meta_epoch": "2025-12-22T20:16:29.836992",
        "meta_mean_motion": 15.31851895,
        "meta_eccentricity": 0.00102762,
        "meta_inclination": 86.3272,
        "meta_ra_of_asc_node": 300.8002,
        "meta_arg_of_pericenter": 36.0994,
        "meta_mean_anomaly": 324.0947,
        "meta_ephemeris_type": 0,
        "meta_classification_type": "U",
        "meta_norad_cat_id": 34488,
        "meta_element_set_no": 999,
        "meta_rev_at_epoch": 89394,
        "meta_bstar": 0.0043586742,
        "meta_mean_motion_dot": 0.00136379,
        "meta_mean_motion_ddot": 0,
        "tle_line1": "1 34488U 97051GD  25356.84478978  .00136379  00000+0  43587-2 0  9992",
        "tle_line2": "2 34488  86.3272 300.8002 0010276  36.0994 324.0947 15.31851895893945"
      },
      "geometry": {
        "type": "Point",
        "coordinates": [
          120.14813750533436,
          2.828062109587869
        ]
      }
    }
  ]
}